STARLINK-31916          
1 59795U 24093P   26152.24230274  .00003191  00000+0  12545-3 0  9996
2 59795  43.0035  97.0393 0001365 260.9544  99.1153 15.27581093115475
STARLINK-31907          
1 59797U 24093R   26152.24488899 -.00000945  00000+0 -24827-4 0  9999
2 59797  43.0032  97.0585 0000937 286.0525  74.0224 15.27562034115474
STARLINK-31687          
1 59798U 24093S   26152.20518403 -.00000535  00000+0 -99188-5 0  9999
2 59798  42.9999  97.6165 0001130 248.2623 111.8108 15.27573323115463
STARLINK-31810          
1 59799U 24093T   26152.19104411  .00000711  00000+0  35376-4 0  9990
2 59799  43.0023  97.5117 0001399 264.3042  95.7651 15.27579175115465
STARLINK-31812          
1 59800U 24093U   26152.18334244 -.00001827  00000+0 -56894-4 0  9990
2 59800  43.0036  97.4555 0001234 271.0706  89.0004 15.27570065115532
STARLINK-31815          
1 59801U 24093V   26152.25257849  .00001288  00000+0  56335-4 0  9993
2 59801  43.0019  97.1156 0001046 278.4451  81.6282 15.27579681115479
STARLINK-31814          
1 59802U 24093W   26152.20901756 -.00005624  00000+0 -19482-3 0  9993
2 59802  43.0041  97.6319 0003064 258.9056 101.1451 15.27598637115464
STARLINK-31794          
1 59803U 24093X   26152.26415105  .00001240  00000+0  54604-4 0  9992
2 59803  43.0016  97.2005 0001272 266.0887  93.9820 15.27568816115549
STARLINK-31824          
1 59804U 24093Y   26151.21410381  .00002115  00000+0  86359-4 0  9992
2 59804  43.0015 103.0798 0001257 260.0122 100.0588 15.27576696115314
2024-094A               
1 59805U 24094A   26152.32986469  .00006992  00000+0  36171-3 0  9995
2 59805  97.3874 223.5417 0003447 243.1584 116.9297 15.16541052112768
2024-094B               
1 59806U 24094B   26152.30010263  .00006984  00000+0  36146-3 0  9997
2 59806  97.3899 223.7250 0005582 168.7203 191.4157 15.16519092112756
2024-094C               
1 59807U 24094C   26152.31698919  .00006825  00000+0  35194-3 0  9995
2 59807  97.3925 223.9056 0001400 256.2683 103.8394 15.16666540112754
2024-094D               
1 59808U 24094D   26152.28060773  .00007736  00000+0  39724-3 0  9998
2 59808  97.3847 223.2794 0001814 288.0246  72.0790 15.16774529112740
2024-092K               
1 59809U 24092K   26151.81524777  .00021508  00000+0  61426-3 0  9991
2 59809  97.6554 283.9988 0007295 199.6534 160.4429 15.36013691112720
2024-095A               
1 59810U 24095A   26152.31845907  .00004962  00000+0  29930-3 0  9992
2 59810  97.5343 231.4572 0002576  22.1728 337.9613 15.11192027111747
2024-095C               
1 59812U 24095C   26151.95221659  .10494483  26443-5  36874-3 0  9997
2 59812  97.5256 259.5684 0016147 268.3295  91.6156 16.42753604113735
STARLINK-31947          
1 59835U 24097A   26152.08538165  .00001328  00000+0  57805-4 0  9996
2 59835  43.0042 163.1753 0001924 286.2199  73.8441 15.27574584114678
STARLINK-31929          
1 59836U 24097B   26152.05982942 -.00000084  00000+0  64712-5 0  9995
2 59836  43.0006 163.8331 0001092 265.9924  94.0803 15.27574071114661
STARLINK-31927          
1 59837U 24097C   26152.10336954  .00001393  00000+0  60137-4 0  9997
2 59837  42.9978 163.2988 0001313 252.1684 107.9024 15.27576771114676
STARLINK-31855          
1 59838U 24097D   26152.08152454  .00021959  00000+0  80475-3 0  9992
2 59838  42.9983 163.1279 0001143 185.8037 174.2802 15.27595678114678
STARLINK-31887          
1 59839U 24097E   26152.06368300  .00003620  00000+0  14101-3 0  9998
2 59839  42.9985 163.8582 0000698 250.6956 109.3820 15.27580435114663
STARLINK-31852          
1 59841U 24097G   26152.04137158  .00000241  00000+0  18263-4 0  9994
2 59841  42.9993 155.9046 0000653 270.8524  89.2253 15.27578046114759
STARLINK-31906          
1 59842U 24097H   26152.04569542  .00000650  00000+0  33147-4 0  9993
2 59842  43.0011 163.7266 0001529 268.4689  91.5988 15.27580768114667
STARLINK-31857          
1 59843U 24097J   26152.07509959  .00000290  00000+0  20054-4 0  9996
2 59843  43.0007 163.0837 0001367 286.6961  73.3741 15.27575262114674
STARLINK-31851          
1 59844U 24097K   26151.43538076 -.00008901  00000+0 -31400-3 0  9993
2 59844  43.0039 166.8933 0001970 278.7021  81.3607 15.27612203114573
STARLINK-31903          
1 59845U 24097L   26152.03124022  .00000834  00000+0  39823-4 0  9996
2 59845  43.0018 156.6907 0001116 270.8807  89.1917 15.27571445114747
STARLINK-31922          
1 59846U 24097M   26152.07895514  .00001027  00000+0  46839-4 0  9992
2 59846  43.0018 163.1136 0001430 284.4354  75.6339 15.27576485114671
STARLINK-31889          
1 59847U 24097N   26152.00343749  .00000215  00000+0  17343-4 0  9990
2 59847  43.0014 164.2734 0001406 301.5637  58.5077 15.27574422114658
STARLINK-31859          
1 59848U 24097P   26152.03766623  .00000683  00000+0  34340-4 0  9999
2 59848  42.9998 156.7382 0001056 281.6769  78.3964 15.27581366114748
STARLINK-31895          
1 59849U 24097Q   26152.09308538  .00005817  00000+0  22088-3 0  9992
2 59849  43.0012 163.2245 0000833 252.3327 107.7434 15.27556815114678
