OBJECT_NAME,OBJECT_ID,EPOCH,MEAN_MOTION,ECCENTRICITY,INCLINATION,RA_OF_ASC_NODE,ARG_OF_PERICENTER,MEAN_ANOMALY,EPHEMERIS_TYPE,CLASSIFICATION_TYPE,NORAD_CAT_ID,ELEMENT_SET_NO,REV_AT_EPOCH,BSTAR,MEAN_MOTION_DOT,MEAN_MOTION_DDOT
STARLINK-31916,2024-093P,2026-06-01T05:48:54.956736,15.27581093,.00013654,43.0035,97.0393,260.9544,99.1153,0,U,59795,999,11547,.12544645E-3,.3191E-4,0
STARLINK-31907,2024-093R,2026-06-01T05:52:38.408736,15.27562034,.00009378,43.0032,97.0585,286.0525,74.0224,0,U,59797,999,11547,-.24826522E-4,-.945E-5,0
STARLINK-31687,2024-093S,2026-06-01T04:55:27.900192,15.27573323,.00011309,42.9999,97.6165,248.2623,111.8108,0,U,59798,999,11546,-.991875E-5,-.535E-5,0
STARLINK-31810,2024-093T,2026-06-01T04:35:06.211104,15.27579175,.00013992,43.0023,97.5117,264.3042,95.7651,0,U,59799,999,11546,.35376488E-4,.711E-5,0
STARLINK-31812,2024-093U,2026-06-01T04:24:00.786816,15.27570065,.00012347,43.0036,97.4555,271.0706,89.0004,0,U,59800,999,11553,-.56893839E-4,-.1827E-4,0
STARLINK-31815,2024-093V,2026-06-01T06:03:42.781536,15.27579681,.00010462,43.0019,97.1156,278.4451,81.6282,0,U,59801,999,11547,.56334965E-4,.1288E-4,0
STARLINK-31814,2024-093W,2026-06-01T05:00:59.117184,15.27598637,.00030641,43.0041,97.6319,258.9056,101.1451,0,U,59802,999,11546,-.19482195E-3,-.5624E-4,0
STARLINK-31794,2024-093X,2026-06-01T06:20:22.650720,15.27568816,.00012724,43.0016,97.2005,266.0887,93.9820,0,U,59803,999,11554,.54604351E-4,.124E-4,0
STARLINK-31824,2024-093Y,2026-05-31T05:08:18.569184,15.27576696,.0001257,43.0015,103.0798,260.0122,100.0588,0,U,59804,999,11531,.8635895E-4,.2115E-4,0
2024-094A,2024-094A,2026-06-01T07:55:00.309216,15.16541052,.00034473,97.3874,223.5417,243.1584,116.9297,0,U,59805,999,11276,.36171102E-3,.6992E-4,0
2024-094B,2024-094B,2026-06-01T07:12:08.867232,15.16519092,.00055821,97.3899,223.7250,168.7203,191.4157,0,U,59806,999,11275,.36145896E-3,.6984E-4,0
2024-094C,2024-094C,2026-06-01T07:36:27.866016,15.16666540,.00014009,97.3925,223.9056,256.2683,103.8394,0,U,59807,999,11275,.35193601E-3,.6825E-4,0
2024-094D,2024-094D,2026-06-01T06:44:04.507872,15.16774529,.00018141,97.3847,223.2794,288.0246,72.0790,0,U,59808,999,11274,.3972408E-3,.7736E-4,0
2024-092K,2024-092K,2026-05-31T19:33:57.407328,15.36013691,.00072954,97.6554,283.9988,199.6534,160.4429,0,U,59809,999,11272,.6142551E-3,.21508E-3,0
2024-095A,2024-095A,2026-06-01T07:38:34.863648,15.11192027,.00025767,97.5343,231.4572,22.1728,337.9613,0,U,59810,999,11174,.29929972E-3,.4962E-4,0
2024-095C,2024-095C,2026-05-31T22:51:11.513376,16.42753604,.0016147,97.5256,259.5684,268.3295,91.6156,0,U,59812,999,11373,.36874E-3,.10494483E+0,.26443E-5
STARLINK-31947,2024-097A,2026-06-01T02:02:56.974560,15.27574584,.00019243,43.0042,163.1753,286.2199,73.8441,0,U,59835,999,11467,.57805353E-4,.1328E-4,0
STARLINK-31929,2024-097B,2026-06-01T01:26:09.261888,15.27574071,.00010926,43.0006,163.8331,265.9924,94.0803,0,U,59836,999,11466,.6471172E-5,-.84E-6,0
STARLINK-31927,2024-097C,2026-06-01T02:28:51.128256,15.27576771,.00013136,42.9978,163.2988,252.1684,107.9024,0,U,59837,999,11467,.60137111E-4,.1393E-4,0
STARLINK-31855,2024-097D,2026-06-01T01:57:23.720256,15.27595678,.00011432,42.9983,163.1279,185.8037,174.2802,0,U,59838,999,11467,.80474982E-3,.21959E-3,0
STARLINK-31887,2024-097E,2026-06-01T01:31:42.211200,15.27580435,.00006982,42.9985,163.8582,250.6956,109.3820,0,U,59839,999,11466,.1410094E-3,.362E-4,0
STARLINK-31852,2024-097G,2026-06-01T00:59:34.504512,15.27578046,.00006539,42.9993,155.9046,270.8524,89.2253,0,U,59841,999,11475,.18263121E-4,.241E-5,0
STARLINK-31906,2024-097H,2026-06-01T01:05:48.084288,15.27580768,.00015292,43.0011,163.7266,268.4689,91.5988,0,U,59842,999,11466,.33147026E-4,.65E-5,0
STARLINK-31857,2024-097J,2026-06-01T01:48:08.604576,15.27575262,.00013675,43.0007,163.0837,286.6961,73.3741,0,U,59843,999,11467,.20054022E-4,.29E-5,0
STARLINK-31851,2024-097K,2026-05-31T10:26:56.897664,15.27612203,.00019706,43.0039,166.8933,278.7021,81.3607,0,U,59844,999,11457,-.3139953E-3,-.8901E-4,0
STARLINK-31903,2024-097L,2026-06-01T00:44:59.155008,15.27571445,.00011161,43.0018,156.6907,270.8807,89.1917,0,U,59845,999,11474,.3982288E-4,.834E-5,0
STARLINK-31922,2024-097M,2026-06-01T01:53:41.724096,15.27576485,.00014301,43.0018,163.1136,284.4354,75.6339,0,U,59846,999,11467,.46838666E-4,.1027E-4,0
STARLINK-31889,2024-097N,2026-06-01T00:04:56.999136,15.27574422,.00014063,43.0014,164.2734,301.5637,58.5077,0,U,59847,999,11465,.17342726E-4,.215E-5,0
STARLINK-31859,2024-097P,2026-06-01T00:54:14.362272,15.27581366,.00010567,42.9998,156.7382,281.6769,78.3964,0,U,59848,999,11474,.34340134E-4,.683E-5,0
STARLINK-31895,2024-097Q,2026-06-01T02:14:02.576832,15.27556815,.00008339,43.0012,163.2245,252.3327,107.7434,0,U,59849,999,11467,.22088074E-3,.5817E-4,0
